ONEWEB-0574             
1 56063U 23043T   23261.25001157  .00089127  00000+0  21404+0 0  9993
2 56063  87.9142  83.6668 0001940  66.8644 106.0494 13.21705333 26693
ONEWEB-0575             
1 56064U 23043U   23260.74981313  .00002698  00000+0  28371-3 0  9990
2 56064  86.9007  74.9715 0002410  90.5502 269.6001 14.89062159 27170
ONEWEB-0576             
1 56065U 23043V   23260.52586448  .00002695  00000+0  28336-3 0  9995
2 56065  86.8954  74.9753 0003103 111.6133 248.5425 14.89065200 26230
ONEWEB-0577             
1 56066U 23043W   23260.99886760  .00002637  00000+0  27731-3 0  9991
2 56066  86.9016  74.9575 0001182 126.1225 234.0111 14.89053039 27220
ONEWEB-0578             
1 56067U 23043X   23261.25001157 -.00077635  00000+0 -18963+0 0  9996
2 56067  87.9183  83.6616 0003787  92.6278 140.4414 13.21822016 26654
ONEWEB-0579             
1 56068U 23043Y   23261.25001157 -.00096385  00000+0 -23573+0 0  9993
2 56068  87.9285  83.6601 0004279  78.4692 195.2090 13.21872315 26667
ONEWEB-0581             
1 56069U 23043Z   23260.73517038  .00002860  00000+0  30077-3 0  9990
2 56069  86.8980  74.9201 0004051 106.8211 253.3461 14.89076037 27175
ONEWEB-0609             
1 56070U 23043AA  23260.53099686  .00000105  00000+0  24427-3 0  9996
2 56070  87.8924  99.0790 0001673  79.1654 280.9665 13.15549111 24475
